H1 CPF  1  HTS 2022  2 12 12  5431 larets           NONE
H2  0304206 5557    27944 2022 02 12  0  0  0 2022 02 17  0  0  0   180 1 1  0 0 0
H5  0.0560 
H9 
10 0 59623  10440.00000  0    6857668.594   -1623795.335     387751.524
10 0 59623  10620.00000  0    6592458.433   -1850488.555    1710115.337
10 0 59623  10800.00000  0    6081757.156   -1999471.124    2969626.182
10 0 59623  10980.00000  0    5346529.539   -2059182.528    4120060.457
10 0 59623  11160.00000  0    4416214.072   -2022008.815    5119304.476
10 0 59623  11340.00000  0    3327474.497   -1884748.475    5930902.443
10 0 59623  11520.00000  0    2122686.386   -1648875.644    6525365.543
10 0 59623  11700.00000  0     848235.659   -1320592.222    6881195.667
10 0 59623  11880.00000  0    -447293.763    -910669.652    6985608.460
10 0 59623  12060.00000  0   -1714973.439    -434086.812    6834943.883
10 0 59623  12240.00000  0   -2907361.154      90520.512    6434768.753
10 0 59623  12420.00000  0   -3980258.632     641582.456    5799676.732
10 0 59623  12600.00000  0   -4894348.317    1195466.523    4952786.309
10 0 59623  12780.00000  0   -5616654.447    1727469.393    3924939.102
10 0 59623  12960.00000  0   -6121769.590    2212893.558    2753612.635
10 0 59623  13140.00000  0   -6392793.774    2628162.559    1481578.146
10 0 59623  13320.00000  0   -6421945.011    2951925.106     155341.297
10 0 59623  13500.00000  0   -6210799.616    3166091.569   -1176581.525
10 0 59623  13680.00000  0   -5770145.952    3256746.508   -2465474.425
10 0 59623  13860.00000  0   -5119456.778    3214890.421   -3664244.066
10 0 59623  14040.00000  0   -4286005.535    3036969.645   -4729166.351
10 0 59623  14220.00000  0   -3303681.996    2725170.458   -5621479.421
10 0 59623  14400.00000  0   -2211576.379    2287468.593   -6308764.217
10 0 59623  14580.00000  0   -1052401.357    1737437.793   -6766078.087
10 0 59623  14760.00000  0     129184.010    1093824.744   -6976809.241
10 0 59623  14940.00000  0    1288277.521     379911.626   -6933241.245
10 0 59623  15120.00000  0    2381418.171    -377314.211   -6636827.555
10 0 59623  15300.00000  0    3368201.535   -1148163.869   -6098160.426
10 0 59623  15480.00000  0    4212773.123   -1901390.764   -5336635.633
10 0 59623  15660.00000  0    4885156.012   -2605443.361   -4379816.379
10 0 59623  15840.00000  0    5362363.887   -3229786.923   -3262494.082
10 0 59623  16020.00000  0    5629247.834   -3746234.306   -2025462.994
10 0 59623  16200.00000  0    5679034.070   -4130224.625    -714038.677
10 0 59623  16380.00000  0    5513515.014   -4361984.916     623627.179
10 0 59623  16560.00000  0    5142876.289   -4427511.272    1938367.963
10 0 59623  16740.00000  0    4585159.699   -4319309.234    3181876.242
10 0 59623  16920.00000  0    3865395.164   -4036850.117    4308534.927
10 0 59623  17100.00000  0    3014453.596   -3586728.446    5277124.568
10 0 59623  17280.00000  0    2067681.999   -2982512.349    6052334.345
10 0 59623  17460.00000  0    1063397.940   -2244301.579    6606021.295
10 0 59623  17640.00000  0      41314.009   -1398021.548    6918181.163
10 0 59623  17820.00000  0    -959037.651    -474487.326    6977615.444
10 0 59623  18000.00000  0   -1899823.319     491728.595    6782290.213
10 0 59623  18180.00000  0   -2746322.861    1463586.200    6339386.543
10 0 59623  18360.00000  0   -3468200.038    2402985.423    5665044.626
10 0 59623  18540.00000  0   -4040591.264    3272248.909    4783808.100
10 0 59623  18720.00000  0   -4444978.481    4035632.286    3727772.192
10 0 59623  18900.00000  0   -4669811.232    4660803.327    2535451.677
10 0 59623  19080.00000  0   -4710846.669    5120228.786    1250395.737
10 0 59623  19260.00000  0   -4571187.296    5392398.051     -80406.533
10 0 59623  19440.00000  0   -4261016.584    5462821.021   -1408267.772
10 0 59623  19620.00000  0   -3797035.094    5324746.427   -2684626.322
10 0 59623  19800.00000  0   -3201623.021    4979554.404   -3862860.829
10 0 59623  19980.00000  0   -2501781.097    4436807.905   -4900013.052
10 0 59623  20160.00000  0   -1727909.485    3713968.002   -5758343.169
10 0 59623  20340.00000  0    -912490.357    2835800.926   -6406670.581
10 0 59623  20520.00000  0     -88729.785    1833498.368   -6821463.850
10 0 59623  20700.00000  0     710781.707     743553.537   -6987645.801
10 0 59623  20880.00000  0    1455340.200    -393561.852   -6899109.354
10 0 59623  21060.00000  0    2117294.073   -1534882.763   -6558933.872
10 0 59623  21240.00000  0    2673063.601   -2636550.654   -5979297.896
10 0 59623  21420.00000  0    3103989.084   -3655482.910   -5181095.143
10 0 59623  21600.00000  0    3396980.579   -4551069.889   -4193243.715
10 0 59623  21780.00000  0    3544935.216   -5286822.302   -3051689.931
10 0 59623  21960.00000  0    3546908.561   -5831907.002   -1798140.057
10 0 59623  22140.00000  0    3408024.594   -6162498.190    -478539.289
10 0 59623  22320.00000  0    3139119.521   -6262862.986     858645.815
10 0 59623  22500.00000  0    2756131.354   -6126116.814    2164264.885
10 0 59623  22680.00000  0    2279269.243   -5754603.877    3390358.011
10 0 59623  22860.00000  0    1732004.329   -5159878.056    4491970.661
10 0 59623  23040.00000  0    1139944.245   -4362299.951    5428827.154
10 0 59623  23220.00000  0     529651.654   -3390274.602    6166801.546
10 0 59623  23400.00000  0     -72537.828   -2279168.454    6679128.059
10 0 59623  23580.00000  0    -641638.308   -1069971.269    6947314.566
10 0 59623  23760.00000  0   -1155033.090     192238.011    6961757.901
10 0 59623  23940.00000  0   -1593358.849    1459975.532    6722051.918
10 0 59623  24120.00000  0   -1941225.694    2685128.155    6236983.015
10 0 59623  24300.00000  0   -2187752.208    3820765.173    5524219.640
10 0 59623  24480.00000  0   -2326900.210    4822931.904    4609702.570
10 0 59623  24660.00000  0   -2357600.524    5652367.946    3526744.273
10 0 59623  24840.00000  0   -2283662.652    6276081.161    2314849.035
10 0 59623  25020.00000  0   -2113470.312    6668703.705    1018287.042
10 0 59623  25200.00000  0   -1859473.441    6813566.256    -315528.761
10 0 59623  25380.00000  0   -1537500.558    6703433.406   -1637803.185
10 0 59623  25560.00000  0   -1165923.650    6340852.189   -2900190.081
10 0 59623  25740.00000  0    -764719.471    5738081.538   -4056595.196
10 0 59623  25920.00000  0    -354483.537    4916632.805   -5064867.721
10 0 59623  26100.00000  0      44555.624    3906448.641   -5888325.444
10 0 59623  26280.00000  0     413477.505    2744761.274   -6497058.878
10 0 59623  26460.00000  0     735521.079    1474682.434   -6868971.444
10 0 59623  26640.00000  0     996811.651     143593.156   -6990534.351
10 0 59623  26820.00000  0    1186938.477   -1198612.738   -6857249.747
10 0 59623  27000.00000  0    1299363.118   -2501375.636   -6473810.712
10 0 59623  27180.00000  0    1331648.302   -3715348.407   -5853963.678
10 0 59623  27360.00000  0    1285499.527   -4794265.177   -5020072.729
10 0 59623  27540.00000  0    1166615.164   -5696732.543   -4002372.221
10 0 59623  27720.00000  0     984348.916   -6387873.431   -2837925.211
10 0 59623  27900.00000  0     751194.221   -6840752.484   -1569303.244
10 0 59623  28080.00000  0     482113.905   -7037507.705    -243025.849
10 0 59623  28260.00000  0     193743.647   -6970118.792    1092183.320
10 0 59623  28440.00000  0     -96488.203   -6640766.096    2387244.149
10 0 59623  28620.00000  0    -371277.176   -6061756.825    3594591.507
10 0 59623  28800.00000  0    -614345.489   -5255013.442    4669976.184
10 0 59623  28980.00000  0    -811282.825   -4251168.352    5574105.767
10 0 59623  29160.00000  0    -950281.374   -3088322.387    6274070.992
10 0 59623  29340.00000  0   -1022731.732   -1810526.281    6744506.402
10 0 59623  29520.00000  0   -1023654.807    -466068.420    6968450.816
10 0 59623  29700.00000  0    -951958.843     894363.204    6937909.266
10 0 59623  29880.00000  0    -810510.998    2219587.266    6654105.301
10 0 59623  30060.00000  0    -606018.647    3459840.077    6127423.044
10 0 59623  30240.00000  0    -348728.948    4568632.905    5377043.111
10 0 59623  30420.00000  0     -51957.346    5504498.904    4430279.118
10 0 59623  30600.00000  0     268539.550    6232571.145    3321623.777
10 0 59623  30780.00000  0     595320.749    6725926.639    2091529.600
10 0 59623  30960.00000  0     910119.299    6966647.264     784943.012
10 0 59623  31140.00000  0    1194760.322    6946513.456    -550355.956
10 0 59623  31320.00000  0    1432090.189    6667305.193   -1865530.952
10 0 59623  31500.00000  0    1606865.959    6140693.939   -3112510.041
10 0 59623  31680.00000  0    1706561.706    5387733.144   -4245772.302
10 0 59623  31860.00000  0    1722052.200    4437970.282   -5224023.470
10 0 59623  32040.00000  0    1648139.321    3328231.278   -6011686.878
10 0 59623  32220.00000  0    1483897.846    2101147.386   -6580161.086
10 0 59623  32400.00000  0    1232827.139     803491.611   -6908809.333
10 0 59623  32580.00000  0     902807.080    -515603.473   -6985664.356
10 0 59623  32760.00000  0     505856.761   -1806489.778   -6807837.903
10 0 59623  32940.00000  0      57704.966   -3020846.074   -6381628.273
10 0 59623  33120.00000  0    -422815.760   -4113470.460   -5722334.252
10 0 59623  33300.00000  0    -914536.278   -5043973.948   -4853761.014
10 0 59623  33480.00000  0   -1394853.196   -5778312.819   -3807423.474
10 0 59623  33660.00000  0   -1840737.007   -6290100.849   -2621453.414
10 0 59623  33840.00000  0   -2229801.087   -6561636.047   -1339234.686
10 0 59623  34020.00000  0   -2541380.547   -6584588.053      -7806.733
10 0 59623  34200.00000  0   -2757564.262   -6360297.283    1323905.318
10 0 59623  34380.00000  0   -2864122.597   -5899659.914    2606951.873
10 0 59623  34560.00000  0   -2851278.149   -5222603.669    3794222.505
10 0 59623  34740.00000  0   -2714277.145   -4357186.308    4842221.699
99
